[
    {
        "Altitude(m)": 575886.2851125767,
        "Argument of Periapsis(deg)": -0.007534386927657468,
        "Eccentricity": 0.0,
        "Inclination(deg)": 97.0,
        "Latitude(deg)": 72.59396077966511,
        "Longitude(deg)": -93.68604692895325,
        "Mean Anomaly(deg)": 73.95304775639585,
        "RAAN(deg)": 30.00198235120617,
        "Satellite Name": "Starlink Shell 3 1652",
        "Satellite Number": 1652,
        "Semi-Major Axis(m)": 6938478.169268562,
        "Time(s)": 190
    },
    {
        "Altitude(m)": 575966.456120513,
        "Argument of Periapsis(deg)": -0.007930933608060494,
        "Eccentricity": 0.0,
        "Inclination(deg)": 97.0,
        "Latitude(deg)": 73.16170120916466,
        "Longitude(deg)": -94.59924324171845,
        "Mean Anomaly(deg)": 74.57852395410089,
        "RAAN(deg)": 30.002086685480176,
        "Satellite Name": "Starlink Shell 3 1652",
        "Satellite Number": 1652,
        "Semi-Major Axis(m)": 6938478.169268562,
        "Time(s)": 200
    },
    {
        "Altitude(m)": 576043.8146730539,
        "Argument of Periapsis(deg)": -0.008327480288463517,
        "Eccentricity": 0.0,
        "Inclination(deg)": 97.0,
        "Latitude(deg)": 73.72548199154289,
        "Longitude(deg)": -95.57116691382417,
        "Mean Anomaly(deg)": 75.20400015180591,
        "RAAN(deg)": 30.002191019754186,
        "Satellite Name": "Starlink Shell 3 1652",
        "Satellite Number": 1652,
        "Semi-Major Axis(m)": 6938478.169268562,
        "Time(s)": 210
    },
    {
        "Altitude(m)": 576118.3168318759,
        "Argument of Periapsis(deg)": -0.008724026968866542,
        "Eccentricity": 0.0,
        "Inclination(deg)": 97.0,
        "Latitude(deg)": 74.28488269907523,
        "Longitude(deg)": -96.60766302331861,
        "Mean Anomaly(deg)": 75.82947634951097,
        "RAAN(deg)": 30.002295354028195,
        "Satellite Name": "Starlink Shell 3 1652",
        "Satellite Number": 1652,
        "Semi-Major Axis(m)": 6938478.169268562,
        "Time(s)": 220
    },
    {
        "Altitude(m)": 576189.9203153714,
        "Argument of Periapsis(deg)": -0.009120573649269567,
        "Eccentricity": 0.0,
        "Inclination(deg)": 97.0,
        "Latitude(deg)": 74.83942420756075,
        "Longitude(deg)": -97.71529319230402,
        "Mean Anomaly(deg)": 76.45495254721602,
        "RAAN(deg)": 30.0023996883022,
        "Satellite Name": "Starlink Shell 3 1652",
        "Satellite Number": 1652,
        "Semi-Major Axis(m)": 6938478.169268562,
        "Time(s)": 230
    },
    {
        "Altitude(m)": 576258.5845186665,
        "Argument of Periapsis(deg)": -0.009517120329672592,
        "Eccentricity": 0.0,
        "Inclination(deg)": 97.0,
        "Latitude(deg)": 75.38855898001626,
        "Longitude(deg)": -98.9014293330585,
        "Mean Anomaly(deg)": 77.08042874492108,
        "RAAN(deg)": 30.00250402257621,
        "Satellite Name": "Starlink Shell 3 1652",
        "Satellite Number": 1652,
        "Semi-Major Axis(m)": 6938478.169268562,
        "Time(s)": 240
    },
    {
        "Altitude(m)": 576324.2705327659,
        "Argument of Periapsis(deg)": -0.009913667010075618,
        "Eccentricity": 0.0,
        "Inclination(deg)": 97.0,
        "Latitude(deg)": 75.93165958962075,
        "Longitude(deg)": -100.17435857223656,
        "Mean Anomaly(deg)": 77.7059049426261,
        "RAAN(deg)": 30.002608356850217,
        "Satellite Name": "Starlink Shell 3 1652",
        "Satellite Number": 1652,
        "Semi-Major Axis(m)": 6938478.169268562,
        "Time(s)": 250
    },
    {
        "Altitude(m)": 576386.9411629252,
        "Argument of Periapsis(deg)": -0.010310213690478642,
        "Eccentricity": 0.0,
        "Inclination(deg)": 97.0,
        "Latitude(deg)": 76.46800517602782,
        "Longitude(deg)": -101.54339521822843,
        "Mean Anomaly(deg)": 78.33138114033113,
        "RAAN(deg)": 30.002712691124227,
        "Satellite Name": "Starlink Shell 3 1652",
        "Satellite Number": 1652,
        "Semi-Major Axis(m)": 6938478.169268562,
        "Time(s)": 260
    },
    {
        "Altitude(m)": 576446.5609461877,
        "Argument of Periapsis(deg)": -0.010706760370881667,
        "Eccentricity": 0.0,
        "Inclination(deg)": 97.0,
        "Latitude(deg)": 76.99676549953742,
        "Longitude(deg)": -103.01899864868616,
        "Mean Anomaly(deg)": 78.95685733803619,
        "RAAN(deg)": 30.002817025398244,
        "Satellite Name": "Starlink Shell 3 1652",
        "Satellite Number": 1652,
        "Semi-Major Axis(m)": 6938478.169268562,
        "Time(s)": 270
    },
    {
        "Altitude(m)": 576503.0961681094,
        "Argument of Periapsis(deg)": -0.011103307051284692,
        "Eccentricity": 0.0,
        "Inclination(deg)": 97.0,
        "Latitude(deg)": 77.5169822436452,
        "Longitude(deg)": -104.61289359024565,
        "Mean Anomaly(deg)": 79.58233353574123,
        "RAAN(deg)": 30.00292135967225,
        "Satellite Name": "Starlink Shell 3 1652",
        "Satellite Number": 1652,
        "Semi-Major Axis(m)": 6938478.169268562,
        "Time(s)": 280
    },
    {
        "Altitude(m)": 576556.5148786074,
        "Argument of Periapsis(deg)": -0.011499853731687715,
        "Eccentricity": 0.0,
        "Inclination(deg)": 97.0,
        "Latitude(deg)": 78.02754723430299,
        "Longitude(deg)": -106.33818104427998,
        "Mean Anomaly(deg)": 80.20780973344628,
        "RAAN(deg)": 30.00302569394626,
        "Satellite Name": "Starlink Shell 3 1652",
        "Satellite Number": 1652,
        "Semi-Major Axis(m)": 6938478.169268562,
        "Time(s)": 290
    },
    {
        "Altitude(m)": 576606.7869070182,
        "Argument of Periapsis(deg)": -0.011896400412090741,
        "Eccentricity": 0.0,
        "Inclination(deg)": 97.0,
        "Latitude(deg)": 78.5271773199916,
        "Longitude(deg)": -108.2094271739992,
        "Mean Anomaly(deg)": 80.83328593115132,
        "RAAN(deg)": 30.00313002822027,
        "Satellite Name": "Starlink Shell 3 1652",
        "Satellite Number": 1652,
        "Semi-Major Axis(m)": 6938478.169268562,
        "Time(s)": 300
    },
    {
        "Altitude(m)": 576653.8838762837,
        "Argument of Periapsis(deg)": -0.012292947092493765,
        "Eccentricity": 0.0,
        "Inclination(deg)": 97.0,
        "Latitude(deg)": 79.01438583119871,
        "Longitude(deg)": -110.24270955287464,
        "Mean Anomaly(deg)": 81.45876212885636,
        "RAAN(deg)": 30.003234362494275,
        "Satellite Name": "Starlink Shell 3 1652",
        "Satellite Number": 1652,
        "Semi-Major Axis(m)": 6938478.169268562,
        "Time(s)": 310
    },
    {
        "Altitude(m)": 576697.7792162847,
        "Argument of Periapsis(deg)": -0.012689493772896788,
        "Eccentricity": 0.0,
        "Inclination(deg)": 97.0,
        "Latitude(deg)": 79.48745087202816,
        "Longitude(deg)": -112.45558459762016,
        "Mean Anomaly(deg)": 82.0842383265614,
        "RAAN(deg)": 30.003338696768285,
        "Satellite Name": "Starlink Shell 3 1652",
        "Satellite Number": 1652,
        "Semi-Major Axis(m)": 6938478.169268562,
        "Time(s)": 320
    },
    {
        "Altitude(m)": 576738.4481763212,
        "Argument of Periapsis(deg)": -0.013086040453299813,
        "Eccentricity": 0.0,
        "Inclination(deg)": 97.0,
        "Latitude(deg)": 79.9443812766147,
        "Longitude(deg)": -114.86692987104401,
        "Mean Anomaly(deg)": 82.70971452426645,
        "RAAN(deg)": 30.003443031042295,
        "Satellite Name": "Starlink Shell 3 1652",
        "Satellite Number": 1652,
        "Semi-Major Axis(m)": 6938478.169268562,
        "Time(s)": 330
    },
    {
        "Altitude(m)": 576775.867836736,
        "Argument of Periapsis(deg)": -0.01348258713370284,
        "Eccentricity": 0.0,
        "Inclination(deg)": 97.0,
        "Latitude(deg)": 80.38288200123327,
        "Longitude(deg)": -117.49659675212713,
        "Mean Anomaly(deg)": 83.3351907219715,
        "RAAN(deg)": 30.0035473653163,
        "Satellite Name": "Starlink Shell 3 1652",
        "Satellite Number": 1652,
        "Semi-Major Axis(m)": 6938478.169268562,
        "Time(s)": 340
    },
    {
        "Altitude(m)": 576810.0171196938,
        "Argument of Periapsis(deg)": -0.013879133814105863,
        "Eccentricity": 0.0,
        "Inclination(deg)": 97.0,
        "Latitude(deg)": 80.80032214800134,
        "Longitude(deg)": -120.36478440846884,
        "Mean Anomaly(deg)": 83.96066691967653,
        "RAAN(deg)": 30.00365169959031,
        "Satellite Name": "Starlink Shell 3 1652",
        "Satellite Number": 1652,
        "Semi-Major Axis(m)": 6938478.169268562,
        "Time(s)": 350
    },
    {
        "Altitude(m)": 576840.876799019,
        "Argument of Periapsis(deg)": -0.01427568049450889,
        "Eccentricity": 0.0,
        "Inclination(deg)": 97.0,
        "Latitude(deg)": 81.19371083363446,
        "Longitude(deg)": -123.49103339245283,
        "Mean Anomaly(deg)": 84.58614311738157,
        "RAAN(deg)": 30.00375603386432,
        "Satellite Name": "Starlink Shell 3 1652",
        "Satellite Number": 1652,
        "Semi-Major Axis(m)": 6938478.169268562,
        "Time(s)": 360
    },
    {
        "Altitude(m)": 576868.4295092672,
        "Argument of Periapsis(deg)": -0.014672227174911913,
        "Eccentricity": 0.0,
        "Inclination(deg)": 97.0,
        "Latitude(deg)": 81.55968873194107,
        "Longitude(deg)": -126.89273272519382,
        "Mean Anomaly(deg)": 85.21161931508661,
        "RAAN(deg)": 30.003860368138326,
        "Satellite Name": "Starlink Shell 3 1652",
        "Satellite Number": 1652,
        "Semi-Major Axis(m)": 6938478.169268562,
        "Time(s)": 370
    }
]